AOR-E (EGNOS/PRN 120)   
1 24307U 96053A   09170.76628699 -.00000107  00000-0  10000-3 0  8766
2 24307   0.0718 324.0646 0005565 121.5794  82.8724  1.00272082 46811
IOR-W (EGNOS/PRN 126)   
1 25153U 98006B   09168.89218589  .00000157  00000-0  10000-3 0  6100
2 25153   0.4903   5.3883 0004058  73.8880 172.8864  1.00273144 41678
ARTEMIS (EGNOS/PRN 124) 
1 26863U 01029A   09171.80050507  .00000131  00000-0  10000-3 0  7155
2 26863   7.4574  69.0805 0003266  32.9228 116.6457  1.00272721 30189
MTSAT-1R (MSAS/PRN 129) 
1 28622U 05006A   09168.78565867 -.00000262  00000-0  10000-3 0  1848
2 28622   0.0542 108.5358 0002141 154.6983  65.8284  1.00270751 15751
ANIK F1R (WAAS/PRN 138) 
1 28868U 05036A   09169.40347885 -.00000057  00000-0  10000-3 0  6893
2 28868   0.0118 333.7999 0002276 136.4967 194.4230  1.00271846 13905
GALAXY 15 (WAAS/PRN 135)
1 28884U 05041A   09171.59315017  .00000091  00000-0  10000-3 0  6451
2 28884   0.0109 287.7411 0002355 177.3015 244.4331  1.00273665 13512
MTSAT-2 (MSAS/PRN 137)  
1 28937U 06004A   09167.40601628 -.00000226  00000-0  10000-3 0  5888
2 28937   0.0184  36.7500 0003099  47.2171 111.9933  1.00274112 12220
